{"type": "FeatureCollection", "features": [ {"type": "Feature", "properties": {"norad_id": 66875, "name": "STARLINK-36053", "group": "last-30-days", "lat": -38.90203677502135, "lon": 54.72090518558799, "alt_km": 302.21665346274585, "timestamp": "2025-12-13T22:39:28.446246+00:00", "meta": {"OBJECT_NAME": "STARLINK-36053", "OBJECT_ID": "2025-281AD", "EPOCH": "2025-12-13T06:21:45.615456", "MEAN_MOTION": 15.90785045, "ECCENTRICITY": 0.00035138, "INCLINATION": 42.9999, "RA_OF_ASC_NODE": 118.9342, "ARG_OF_PERICENTER": 244.3627, "MEAN_ANOMALY": 115.6885, "EPHEMERIS_TYPE": 0, "CLASSIFICATION_TYPE": "U", "NORAD_CAT_ID": 66875, "ELEMENT_SET_NO": 999, "REV_AT_EPOCH": 282, "BSTAR": -0.0005508671, "MEAN_MOTION_DOT": -0.00180988, "MEAN_MOTION_DDOT": 1.8829353e-05}, "tle": {"line1": "1 66875U 25281AD  25347.26511129 -.00180988  18829-4 -55087-3 0  9994", "line2": "2 66875  42.9999 118.9342 0003513 244.3627 115.6885 15.90785045  2824"}}, "geometry": {"type": "Point", "coordinates": [54.72090518558799, -38.90203677502135]}}, {"type": "Feature", "properties": {"norad_id": 66876, "name": "STARLINK-35702", "group": "last-30-days", "lat": -37.102288901921945, "lon": 60.44744696416824, "alt_km": 291.84451468319094, "timestamp": "2025-12-13T22:39:28.446257+00:00", "meta": {"OBJECT_NAME": "STARLINK-35702", "OBJECT_ID": "2025-281AE", "EPOCH": "2025-12-13T01:51:28.717344", "MEAN_MOTION": 15.92649649, "ECCENTRICITY": 0.00026407, "INCLINATION": 43.0009, "RA_OF_ASC_NODE": 120.1106, "ARG_OF_PERICENTER": 295.4716, "MEAN_ANOMALY": 64.5886, "EPHEMERIS_TYPE": 0, "CLASSIFICATION_TYPE": "U", "NORAD_CAT_ID": 66876, "ELEMENT_SET_NO": 999, "REV_AT_EPOCH": 284, "BSTAR": 0.002543947, "MEAN_MOTION_DOT": 0.00900389, "MEAN_MOTION_DDOT": 0.00035047709}, "tle": {"line1": "1 66876U 25281AE  25347.07741571  .00900389  35048-3  25439-2 0  9991", "line2": "2 66876  43.0009 120.1106 0002640 295.4716  64.5886 15.92649649  2844"}}, "geometry": {"type": "Point", "coordinates": [60.44744696416824, -37.102288901921945]}}, {"type": "Feature", "properties": {"norad_id": 66877, "name": "ZQ-3 R/B", "group": "last-30-days", "lat": 12.145214950103991, "lon": -134.99529800221586, "alt_km": 359.7357403000924, "timestamp": "2025-12-13T22:39:28.446268+00:00", "meta": {"OBJECT_NAME": "ZQ-3 R/B", "OBJECT_ID": "2025-282A", "EPOCH": "2025-12-13T07:04:02.217504", "MEAN_MOTION": 14.60456455, "ECCENTRICITY": 0.07750411, "INCLINATION": 56.9519, "RA_OF_ASC_NODE": 55.5532, "ARG_OF_PERICENTER": 220.9124, "MEAN_ANOMALY": 133.1202, "EPHEMERIS_TYPE": 0, "CLASSIFICATION_TYPE": "U", "NORAD_CAT_ID": 66877, "ELEMENT_SET_NO": 999, "REV_AT_EPOCH": 147, "BSTAR": 0.00025172114, "MEAN_MOTION_DOT": 0.01266875, "MEAN_MOTION_DDOT": 7.490532e-06}, "tle": {"line1": "1 66877U 25282A   25347.29447011  .01266875  74905-5  25172-3 0  9997", "line2": "2 66877  56.9519  55.5532 0775041 220.9124 133.1202 14.60456455  1474"}}, "geometry": {"type": "Point", "coordinates": [-134.99529800221586, 12.145214950103991]}}, {"type": "Feature", "properties": {"norad_id": 66878, "name": "STARLINK-35866", "group": "last-30-days", "lat": -52.34157153515781, "lon": -35.81254672190558, "alt_km": 303.63505703117426, "timestamp": "2025-12-13T22:39:28.446279+00:00", "meta": {"OBJECT_NAME": "STARLINK-35866", "OBJECT_ID": "2025-283A", "EPOCH": "2025-12-13T06:00:02.000160", "MEAN_MOTION": 15.93019693, "ECCENTRICITY": 8.412e-05, "INCLINATION": 53.1554, "RA_OF_ASC_NODE": 71.3967, "ARG_OF_PERICENTER": 78.5479, "MEAN_ANOMALY": 162.4641, "EPHEMERIS_TYPE": 0, "CLASSIFICATION_TYPE": "U", "NORAD_CAT_ID": 66878, "ELEMENT_SET_NO": 999, "REV_AT_EPOCH": 251, "BSTAR": -0.0033032753, "MEAN_MOTION_DOT": -0.01182812, "MEAN_MOTION_DDOT": 0.00041913806}, "tle": {"line1": "1 66878U 25283A   25347.25002315 -.01182812  41914-3 -33033-2 0  9995", "line2": "2 66878  53.1554  71.3967 0000841  78.5479 162.4641 15.93019693  2514"}}, "geometry": {"type": "Point", "coordinates": [-35.81254672190558, -52.34157153515781]}}, {"type": "Feature", "properties": {"norad_id": 66879, "name": "STARLINK-35749", "group": "last-30-days", "lat": -52.986898309733554, "lon": -28.084989095102756, "alt_km": 303.51877699007764, "timestamp": "2025-12-13T22:39:28.446289+00:00", "meta": {"OBJECT_NAME": "STARLINK-35749", "OBJECT_ID": "2025-283B", "EPOCH": "2025-12-13T06:00:02.000160", "MEAN_MOTION": 15.93126311, "ECCENTRICITY": 0.00010538, "INCLINATION": 53.1551, "RA_OF_ASC_NODE": 71.3871, "ARG_OF_PERICENTER": 88.8101, "MEAN_ANOMALY": 156.6872, "EPHEMERIS_TYPE": 0, "CLASSIFICATION_TYPE": "U", "NORAD_CAT_ID": 66879, "ELEMENT_SET_NO": 999, "REV_AT_EPOCH": 251, "BSTAR": -0.0033012591, "MEAN_MOTION_DOT": -0.01188691, "MEAN_MOTION_DDOT": 0.00042337617}, "tle": {"line1": "1 66879U 25283B   25347.25002315 -.01188691  42338-3 -33013-2 0  9996", "line2": "2 66879  53.1551  71.3871 0001053  88.8101 156.6872 15.93126311  2515"}}, "geometry": {"type": "Point", "coordinates": [-28.084989095102756, -52.986898309733554]}}, {"type": "Feature", "properties": {"norad_id": 66880, "name": "STARLINK-35844", "group": "last-30-days", "lat": -52.70963358853021, "lon": -32.18843972767307, "alt_km": 303.5581392082122, "timestamp": "2025-12-13T22:39:28.446299+00:00", "meta": {"OBJECT_NAME": "STARLINK-35844", "OBJECT_ID": "2025-283C", "EPOCH": "2025-12-13T06:00:02.000160", "MEAN_MOTION": 15.93068243, "ECCENTRICITY": 9.212e-05, "INCLINATION": 53.1555, "RA_OF_ASC_NODE": 71.3924, "ARG_OF_PERICENTER": 76.2803, "MEAN_ANOMALY": 166.8522, "EPHEMERIS_TYPE": 0, "CLASSIFICATION_TYPE": "U", "NORAD_CAT_ID": 66880, "ELEMENT_SET_NO": 999, "REV_AT_EPOCH": 251, "BSTAR": -0.0032928746, "MEAN_MOTION_DOT": -0.01182115, "MEAN_MOTION_DDOT": 0.00041888907}, "tle": {"line1": "1 66880U 25283C   25347.25002315 -.01182115  41889-3 -32929-2 0  9998", "line2": "2 66880  53.1555  71.3924 0000921  76.2803 166.8522 15.93068243  2517"}}, "geometry": {"type": "Point", "coordinates": [-32.18843972767307, -52.70963358853021]}}, {"type": "Feature", "properties": {"norad_id": 66881, "name": "STARLINK-35860", "group": "last-30-days", "lat": -53.102519590718444, "lon": -24.932266504926645, "alt_km": 303.47593056591177, "timestamp": "2025-12-13T22:39:28.446319+00:00", "meta": {"OBJECT_NAME": "STARLINK-35860", "OBJECT_ID": "2025-283D", "EPOCH": "2025-12-13T06:00:02.000160", "MEAN_MOTION": 15.93175142, "ECCENTRICITY": 0.00011511, "INCLINATION": 53.1552, "RA_OF_ASC_NODE": 71.3832, "ARG_OF_PERICENTER": 83.4235, "MEAN_ANOMALY": 163.8662, "EPHEMERIS_TYPE": 0, "CLASSIFICATION_TYPE": "U", "NORAD_CAT_ID": 66881, "ELEMENT_SET_NO": 999, "REV_AT_EPOCH": 251, "BSTAR": -0.0033067536, "MEAN_MOTION_DOT": -0.01193689, "MEAN_MOTION_DDOT": 0.00042682286}, "tle": {"line1": "1 66881U 25283D   25347.25002315 -.01193689  42682-3 -33068-2 0  9994", "line2": "2 66881  53.1552  71.3832 0001151  83.4235 163.8662 15.93175142  2517"}}, "geometry": {"type": "Point", "coordinates": [-24.932266504926645, -53.102519590718444]}}, {"type": "Feature", "properties": {"norad_id": 66882, "name": "STARLINK-35912", "group": "last-30-days", "lat": -53.131695443609146, "lon": -21.28216028239329, "alt_km": 303.2434228300817, "timestamp": "2025-12-13T22:39:28.446329+00:00", "meta": {"OBJECT_NAME": "STARLINK-35912", "OBJECT_ID": "2025-283E", "EPOCH": "2025-12-13T06:00:02.000160", "MEAN_MOTION": 15.93228771, "ECCENTRICITY": 0.00010071, "INCLINATION": 53.1553, "RA_OF_ASC_NODE": 71.3793, "ARG_OF_PERICENTER": 81.0965, "MEAN_ANOMALY": 168.2653, "EPHEMERIS_TYPE": 0, "CLASSIFICATION_TYPE": "U", "NORAD_CAT_ID": 66882, "ELEMENT_SET_NO": 999, "REV_AT_EPOCH": 251, "BSTAR": -0.0033111381, "MEAN_MOTION_DOT": -0.01198577, "MEAN_MOTION_DDOT": 0.00043023277}, "tle": {"line1": "1 66882U 25283E   25347.25002315 -.01198577  43023-3 -33111-2 0  9995", "line2": "2 66882  53.1553  71.3793 0001007  81.0965 168.2653 15.93228771  2515"}}, "geometry": {"type": "Point", "coordinates": [-21.28216028239329, -53.131695443609146]}}, {"type": "Feature", "properties": {"norad_id": 66883, "name": "STARLINK-35947", "group": "last-30-days", "lat": -53.03826537417778, "lon": -17.362419416147258, "alt_km": 302.9297254701105, "timestamp": "2025-12-13T22:39:28.446341+00:00", "meta": {"OBJECT_NAME": "STARLINK-35947", "OBJECT_ID": "2025-283F", "EPOCH": "2025-12-13T06:00:02.000160", "MEAN_MOTION": 15.93283451, "ECCENTRICITY": 7.788e-05, "INCLINATION": 53.1554, "RA_OF_ASC_NODE": 71.3749, "ARG_OF_PERICENTER": 80.6826, "MEAN_ANOMALY": 170.9117, "EPHEMERIS_TYPE": 0, "CLASSIFICATION_TYPE": "U", "NORAD_CAT_ID": 66883, "ELEMENT_SET_NO": 999, "REV_AT_EPOCH": 256, "BSTAR": -0.0033103857, "MEAN_MOTION_DOT": -0.01201701, "MEAN_MOTION_DDOT": 0.00043250572}, "tle": {"line1": "1 66883U 25283F   25347.25002315 -.01201701  43251-3 -33104-2 0  9995", "line2": "2 66883  53.1554  71.3749 0000778  80.6826 170.9117 15.93283451  2569"}}, "geometry": {"type": "Point", "coordinates": [-17.362419416147258, -53.03826537417778]}}, {"type": "Feature", "properties": {"norad_id": 66884, "name": "STARLINK-36057", "group": "last-30-days", "lat": -52.48420332143881, "lon": -9.780656630167568, "alt_km": 302.8264758791056, "timestamp": "2025-12-13T22:39:28.446351+00:00", "meta": {"OBJECT_NAME": "STARLINK-36057", "OBJECT_ID": "2025-283G", "EPOCH": "2025-12-13T06:00:02.000160", "MEAN_MOTION": 15.93395061, "ECCENTRICITY": 0.00010314, "INCLINATION": 53.1552, "RA_OF_ASC_NODE": 71.3652, "ARG_OF_PERICENTER": 83.2718, "MEAN_ANOMALY": 172.6986, "EPHEMERIS_TYPE": 0, "CLASSIFICATION_TYPE": "U", "NORAD_CAT_ID": 66884, "ELEMENT_SET_NO": 999, "REV_AT_EPOCH": 251, "BSTAR": -0.0033254499, "MEAN_MOTION_DOT": -0.0121418, "MEAN_MOTION_DDOT": 0.00044119294}, "tle": {"line1": "1 66884U 25283G   25347.25002315 -.01214180  44119-3 -33254-2 0  9991", "line2": "2 66884  53.1552  71.3652 0001031  83.2718 172.6986 15.93395061  2512"}}, "geometry": {"type": "Point", "coordinates": [-9.780656630167568, -52.48420332143881]}}]}